JILIN-1 GAOFEN 3A       
1 44312U 19032C   26201.31866052  .00007367  00000+0  23413-3 0  9999
2 44312  44.9738 174.4975 0005078 143.1290 216.9945 15.33259829392926
JILIN-1 GAOFEN 2A       
1 44777U 19075A   26201.27914612  .00007982  00000+0  20159-3 0  9999
2 44777  97.4953 285.8611 0004703 333.7348  26.3659 15.40092411369976
JILIN-1 GAOFEN 2B       
1 44836U 19086A   26201.24119906  .00003237  00000+0  14871-3 0  9990
2 44836  97.4864 273.0299 0013722 197.4571 162.6195 15.21031617365513
JILIN-1 GAOFEN 3E       
1 46457U 20065D   26201.26337582  .00050711  00000+0  46193-3 0  9995
2 46457  97.2202 254.7314 0009308  55.2363 304.9774 15.67721338324938
JILIN-1 GAOFEN 3F       
1 46458U 20065E   26201.28873971  .00039084  00000+0  40788-3 0  9999
2 46458  97.2159 251.9196 0010628  40.3048 319.8998 15.64346308324872
JILIN-1 GAOFEN 3G       
1 46459U 20065F   26201.25923690  .00087905  00000+0  52067-3 0  9999
2 46459  97.2210 259.3185 0006084 250.0064 110.0548 15.77796893325145
JILIN-1 GAOFEN 3H       
1 46460U 20065G   26201.25441752  .00064771  00000+0  47508-3 0  9995
2 46460  97.2164 255.4076 0007093 186.3779 173.7396 15.72927166325079
JILIN-1 GAOFEN 2D       
1 49256U 21086A   26201.27635835  .00002261  00000+0  13807-3 0  9995
2 49256  97.6509 323.9810 0033659  33.6619 326.6739 15.10888130265716
JILIN-1 GAOFEN 2F       
1 49338U 21097A   26201.28175879  .00002205  00000+0  14704-3 0  9991
2 49338  97.6736 327.4102 0020009 113.5108 246.8225 15.07971343261307
JILIN-1 GAOFEN 3D27     
1 52444U 22048B   26201.28362913  .00132446  00000+0  57645-3 0  9999
2 52444  97.5720 318.4569 0005693 232.6799 127.3952 15.84406276234706
JILIN-1 GAOFEN 3D28     
1 52445U 22048C   26201.26034154  .00195928  16107-4  66138-3 0  9992
2 52445  97.5678 318.7714 0005673 237.6594 122.4130 15.89968780234768
JILIN-1 GAOFEN 3D29     
1 52446U 22048D   26201.26786831  .00133238  00000+0  57378-3 0  9991
2 52446  97.5729 318.8066 0004773 220.9048 139.1864 15.84634739234720
JILIN-1 GAOFEN 3D31     
1 52448U 22048F   26201.26004161  .00306678  39833-4  72290-3 0  9993
2 52448  97.5739 320.2404 0006649 242.8183 117.2416 15.96799152234839
JILIN-1 GAOFEN 03D09    
1 53445U 22098B   26201.31744461  .00054414  00000+0  43717-3 0  9995
2 53445  97.5631 333.5902 0003770 216.7304 143.3701 15.70818527219824
JILIN-1 GAOFEN 03D43    
1 53448U 22098E   26201.21748794  .00081751  00000+0  55530-3 0  9990
2 53448  97.5615 334.6724 0003953 213.4304 146.6711 15.74693253219884
JILIN-1 GAOFEN 03D08    
1 54251U 22155A   26201.32129884  .00045234  00000+0  40873-3 0  9992
2 54251  97.6243 349.4693 0004489 210.8000 149.2998 15.67989313205005
