{"fetched_at":"2026-07-20T18:29:29.624Z","source":"https://celestrak.org/NORAD/elements/gp.php?NAME=JILIN&FORMAT=JSON","constellation":"jilin-1-gaofen","records":[{"OBJECT_NAME":"JILIN-1 GAOFEN 3A","OBJECT_ID":"2019-032C","EPOCH":"2026-07-20T07:38:52.268928","CLASSIFICATION_TYPE":"U","MEAN_MOTION":15.33259829,"ECCENTRICITY":0.00050785,"INCLINATION":44.9738,"RA_OF_ASC_NODE":174.4975,"ARG_OF_PERICENTER":143.129,"MEAN_ANOMALY":216.9945,"EPHEMERIS_TYPE":0,"NORAD_CAT_ID":44312,"ELEMENT_SET_NO":999,"REV_AT_EPOCH":39292,"BSTAR":0.00023413131,"MEAN_MOTION_DOT":0.00007367,"MEAN_MOTION_DDOT":0},{"OBJECT_NAME":"JILIN-1 GAOFEN 2A","OBJECT_ID":"2019-075A","EPOCH":"2026-07-20T06:41:58.224768","CLASSIFICATION_TYPE":"U","MEAN_MOTION":15.40092411,"ECCENTRICITY":0.00047036,"INCLINATION":97.4953,"RA_OF_ASC_NODE":285.8611,"ARG_OF_PERICENTER":333.7348,"MEAN_ANOMALY":26.3659,"EPHEMERIS_TYPE":0,"NORAD_CAT_ID":44777,"ELEMENT_SET_NO":999,"REV_AT_EPOCH":36997,"BSTAR":0.00020158644,"MEAN_MOTION_DOT":0.00007982,"MEAN_MOTION_DDOT":0},{"OBJECT_NAME":"JILIN-1 GAOFEN 2B","OBJECT_ID":"2019-086A","EPOCH":"2026-07-20T05:47:19.598784","CLASSIFICATION_TYPE":"U","MEAN_MOTION":15.21031617,"ECCENTRICITY":0.0013722,"INCLINATION":97.4864,"RA_OF_ASC_NODE":273.0299,"ARG_OF_PERICENTER":197.4571,"MEAN_ANOMALY":162.6195,"EPHEMERIS_TYPE":0,"NORAD_CAT_ID":44836,"ELEMENT_SET_NO":999,"REV_AT_EPOCH":36551,"BSTAR":0.00014870927,"MEAN_MOTION_DOT":0.00003237,"MEAN_MOTION_DDOT":0},{"OBJECT_NAME":"JILIN-1 GAOFEN 3E","OBJECT_ID":"2020-065D","EPOCH":"2026-07-20T06:19:15.670848","CLASSIFICATION_TYPE":"U","MEAN_MOTION":15.67721338,"ECCENTRICITY":0.00093084,"INCLINATION":97.2202,"RA_OF_ASC_NODE":254.7314,"ARG_OF_PERICENTER":55.2363,"MEAN_ANOMALY":304.9774,"EPHEMERIS_TYPE":0,"NORAD_CAT_ID":46457,"ELEMENT_SET_NO":999,"REV_AT_EPOCH":32493,"BSTAR":0.00046193023,"MEAN_MOTION_DOT":0.00050711,"MEAN_MOTION_DDOT":0},{"OBJECT_NAME":"JILIN-1 GAOFEN 3F","OBJECT_ID":"2020-065E","EPOCH":"2026-07-20T06:55:47.110944","CLASSIFICATION_TYPE":"U","MEAN_MOTION":15.64346308,"ECCENTRICITY":0.00106282,"INCLINATION":97.2159,"RA_OF_ASC_NODE":251.9196,"ARG_OF_PERICENTER":40.3048,"MEAN_ANOMALY":319.8998,"EPHEMERIS_TYPE":0,"NORAD_CAT_ID":46458,"ELEMENT_SET_NO":999,"REV_AT_EPOCH":32487,"BSTAR":0.00040787698,"MEAN_MOTION_DOT":0.00039084,"MEAN_MOTION_DDOT":0},{"OBJECT_NAME":"JILIN-1 GAOFEN 3G","OBJECT_ID":"2020-065F","EPOCH":"2026-07-20T06:13:18.068160","CLASSIFICATION_TYPE":"U","MEAN_MOTION":15.77796893,"ECCENTRICITY":0.00060848,"INCLINATION":97.221,"RA_OF_ASC_NODE":259.3185,"ARG_OF_PERICENTER":250.0064,"MEAN_ANOMALY":110.0548,"EPHEMERIS_TYPE":0,"NORAD_CAT_ID":46459,"ELEMENT_SET_NO":999,"REV_AT_EPOCH":32514,"BSTAR":0.0005206666,"MEAN_MOTION_DOT":0.00087905,"MEAN_MOTION_DDOT":0},{"OBJECT_NAME":"JILIN-1 GAOFEN 3H","OBJECT_ID":"2020-065G","EPOCH":"2026-07-20T06:06:21.673728","CLASSIFICATION_TYPE":"U","MEAN_MOTION":15.72927166,"ECCENTRICITY":0.00070938,"INCLINATION":97.2164,"RA_OF_ASC_NODE":255.4076,"ARG_OF_PERICENTER":186.3779,"MEAN_ANOMALY":173.7396,"EPHEMERIS_TYPE":0,"NORAD_CAT_ID":46460,"ELEMENT_SET_NO":999,"REV_AT_EPOCH":32507,"BSTAR":0.00047508117,"MEAN_MOTION_DOT":0.00064771,"MEAN_MOTION_DDOT":0},{"OBJECT_NAME":"JILIN-1 GAOFEN 2D","OBJECT_ID":"2021-086A","EPOCH":"2026-07-20T06:37:57.361440","CLASSIFICATION_TYPE":"U","MEAN_MOTION":15.1088813,"ECCENTRICITY":0.00336592,"INCLINATION":97.6509,"RA_OF_ASC_NODE":323.981,"ARG_OF_PERICENTER":33.6619,"MEAN_ANOMALY":326.6739,"EPHEMERIS_TYPE":0,"NORAD_CAT_ID":49256,"ELEMENT_SET_NO":999,"REV_AT_EPOCH":26571,"BSTAR":0.00013807339,"MEAN_MOTION_DOT":0.00002261,"MEAN_MOTION_DDOT":0},{"OBJECT_NAME":"JILIN-1 GAOFEN 2F","OBJECT_ID":"2021-097A","EPOCH":"2026-07-20T06:45:43.959456","CLASSIFICATION_TYPE":"U","MEAN_MOTION":15.07971343,"ECCENTRICITY":0.00200096,"INCLINATION":97.6736,"RA_OF_ASC_NODE":327.4102,"ARG_OF_PERICENTER":113.5108,"MEAN_ANOMALY":246.8225,"EPHEMERIS_TYPE":0,"NORAD_CAT_ID":49338,"ELEMENT_SET_NO":999,"REV_AT_EPOCH":26130,"BSTAR":0.00014704288,"MEAN_MOTION_DOT":0.00002205,"MEAN_MOTION_DDOT":0},{"OBJECT_NAME":"JILIN-1 GAOFEN 3D27","OBJECT_ID":"2022-048B","EPOCH":"2026-07-20T06:48:25.556832","CLASSIFICATION_TYPE":"U","MEAN_MOTION":15.84406276,"ECCENTRICITY":0.00056933,"INCLINATION":97.572,"RA_OF_ASC_NODE":318.4569,"ARG_OF_PERICENTER":232.6799,"MEAN_ANOMALY":127.3952,"EPHEMERIS_TYPE":0,"NORAD_CAT_ID":52444,"ELEMENT_SET_NO":999,"REV_AT_EPOCH":23470,"BSTAR":0.00057644633,"MEAN_MOTION_DOT":0.00132446,"MEAN_MOTION_DDOT":0},{"OBJECT_NAME":"JILIN-1 GAOFEN 3D28","OBJECT_ID":"2022-048C","EPOCH":"2026-07-20T06:14:53.509056","CLASSIFICATION_TYPE":"U","MEAN_MOTION":15.8996878,"ECCENTRICITY":0.00056737,"INCLINATION":97.5678,"RA_OF_ASC_NODE":318.7714,"ARG_OF_PERICENTER":237.6594,"MEAN_ANOMALY":122.413,"EPHEMERIS_TYPE":0,"NORAD_CAT_ID":52445,"ELEMENT_SET_NO":999,"REV_AT_EPOCH":23476,"BSTAR":0.00066138275,"MEAN_MOTION_DOT":0.00195928,"MEAN_MOTION_DDOT":0.000016107184},{"OBJECT_NAME":"JILIN-1 GAOFEN 3D29","OBJECT_ID":"2022-048D","EPOCH":"2026-07-20T06:25:43.821984","CLASSIFICATION_TYPE":"U","MEAN_MOTION":15.84634739,"ECCENTRICITY":0.00047737,"INCLINATION":97.5729,"RA_OF_ASC_NODE":318.8066,"ARG_OF_PERICENTER":220.9048,"MEAN_ANOMALY":139.1864,"EPHEMERIS_TYPE":0,"NORAD_CAT_ID":52446,"ELEMENT_SET_NO":999,"REV_AT_EPOCH":23472,"BSTAR":0.0005737835,"MEAN_MOTION_DOT":0.00133238,"MEAN_MOTION_DDOT":0},{"OBJECT_NAME":"JILIN-1 GAOFEN 3D31","OBJECT_ID":"2022-048F","EPOCH":"2026-07-20T06:14:27.595104","CLASSIFICATION_TYPE":"U","MEAN_MOTION":15.96799152,"ECCENTRICITY":0.00066499,"INCLINATION":97.5739,"RA_OF_ASC_NODE":320.2404,"ARG_OF_PERICENTER":242.8183,"MEAN_ANOMALY":117.2416,"EPHEMERIS_TYPE":0,"NORAD_CAT_ID":52448,"ELEMENT_SET_NO":999,"REV_AT_EPOCH":23483,"BSTAR":0.00072289686,"MEAN_MOTION_DOT":0.00306678,"MEAN_MOTION_DDOT":0.000039832676},{"OBJECT_NAME":"JILIN-1 GAOFEN 03D09","OBJECT_ID":"2022-098B","EPOCH":"2026-07-20T07:37:07.214304","CLASSIFICATION_TYPE":"U","MEAN_MOTION":15.70818527,"ECCENTRICITY":0.00037702,"INCLINATION":97.5631,"RA_OF_ASC_NODE":333.5902,"ARG_OF_PERICENTER":216.7304,"MEAN_ANOMALY":143.3701,"EPHEMERIS_TYPE":0,"NORAD_CAT_ID":53445,"ELEMENT_SET_NO":999,"REV_AT_EPOCH":21982,"BSTAR":0.00043716905,"MEAN_MOTION_DOT":0.00054414,"MEAN_MOTION_DDOT":0},{"OBJECT_NAME":"JILIN-1 GAOFEN 03D43","OBJECT_ID":"2022-098E","EPOCH":"2026-07-20T05:13:10.958016","CLASSIFICATION_TYPE":"U","MEAN_MOTION":15.74693253,"ECCENTRICITY":0.00039537,"INCLINATION":97.5615,"RA_OF_ASC_NODE":334.6724,"ARG_OF_PERICENTER":213.4304,"MEAN_ANOMALY":146.6711,"EPHEMERIS_TYPE":0,"NORAD_CAT_ID":53448,"ELEMENT_SET_NO":999,"REV_AT_EPOCH":21988,"BSTAR":0.00055529845,"MEAN_MOTION_DOT":0.00081751,"MEAN_MOTION_DDOT":0},{"OBJECT_NAME":"JILIN-1 GAOFEN 03D08","OBJECT_ID":"2022-155A","EPOCH":"2026-07-20T07:42:40.219776","CLASSIFICATION_TYPE":"U","MEAN_MOTION":15.67989313,"ECCENTRICITY":0.00044893,"INCLINATION":97.6243,"RA_OF_ASC_NODE":349.4693,"ARG_OF_PERICENTER":210.8,"MEAN_ANOMALY":149.2998,"EPHEMERIS_TYPE":0,"NORAD_CAT_ID":54251,"ELEMENT_SET_NO":999,"REV_AT_EPOCH":20500,"BSTAR":0.00040873077,"MEAN_MOTION_DOT":0.00045234,"MEAN_MOTION_DDOT":0}]}
